HAWK-11A                
1 62382U 24247F   26068.51231358  .00009457  00000+0  34106-3 0  9991
2 62382  44.9941 114.3328 0005466 327.3713  32.6832 15.28849427 67741
STARLINK-34983          
1 65411U 25192H   26068.66874530  .00045835  00000+0  15108-2 0  9998
2 65411  53.1603 232.2609 0001000  75.2224 284.8888 15.31032253 29387
