[{"OBJECT_NAME":"HAWK-11A","OBJECT_ID":"2024-247F","EPOCH":"2026-03-09T12:17:43.893312","MEAN_MOTION":15.28849427,"ECCENTRICITY":0.00054663,"INCLINATION":44.9941,"RA_OF_ASC_NODE":114.3328,"ARG_OF_PERICENTER":327.3713,"MEAN_ANOMALY":32.6832,"EPHEMERIS_TYPE":0,"CLASSIFICATION_TYPE":"U","NORAD_CAT_ID":62382,"ELEMENT_SET_NO":999,"REV_AT_EPOCH":6774,"BSTAR":0.00034106017,"MEAN_MOTION_DOT":9.457e-5,"MEAN_MOTION_DDOT":0},{"OBJECT_NAME":"STARLINK-34983","OBJECT_ID":"2025-192H","EPOCH":"2026-03-09T16:02:59.594784","MEAN_MOTION":15.31032253,"ECCENTRICITY":9.997e-5,"INCLINATION":53.1603,"RA_OF_ASC_NODE":232.2609,"ARG_OF_PERICENTER":75.2224,"MEAN_ANOMALY":284.8888,"EPHEMERIS_TYPE":0,"CLASSIFICATION_TYPE":"U","NORAD_CAT_ID":65411,"ELEMENT_SET_NO":999,"REV_AT_EPOCH":2938,"BSTAR":0.0015107501,"MEAN_MOTION_DOT":0.00045835,"MEAN_MOTION_DDOT":0}]
